ONEWEB-0620             
1 55161U 23004X   25110.45410810  .00000020  00000+0  19646-4 0  9990
2 55161  87.8790 105.3620 0001911 103.4172 256.7169 13.11413359110421
ONEWEB-0621             
1 55162U 23004Y   25109.94716990 -.00000232  00000+0 -69016-3 0  9993
2 55162  87.8792 105.4223 0002199  87.9072 272.2308 13.11419934110331
ONEWEB-0622             
1 55163U 23004Z   25109.95223636 -.00000080  00000+0 -26055-3 0  9992
2 55163  87.8793 105.4427 0002449 106.0765 254.0633 13.11420355110337
ONEWEB-0623             
1 55164U 23004AA  25110.50931163  .00000104  00000+0  23550-3 0  9999
2 55164  87.9020  90.0683 0002673  97.0807 263.0629 13.17647521111923
ONEWEB-0624             
1 55165U 23004AB  25110.45970101 -.00000331  00000+0 -95609-3 0  9997
2 55165  87.8854  74.7682 0002112  85.7774 274.3595 13.12443579112606
ONEWEB-0625             
1 55166U 23004AC  25110.49918638  .00000019  00000+0  15656-4 0  9995
2 55166  87.9021  90.0672 0002010  80.2354 279.9004 13.17647668111914
ONEWEB-0626             
1 55167U 23004AD  25110.48906401  .00000043  00000+0  76918-4 0  9995
2 55167  87.9022  90.0675 0001443  93.6277 266.5019 13.17648831111911
ONEWEB-0627             
1 55168U 23004AE  25110.47724887  .00000101  00000+0  22683-3 0  9995
2 55168  87.9021  90.0728 0002404  99.9396 260.2007 13.17647491111918
